[
    {
        "Altitude(m)": 717760.0468493286,
        "Argument of Periapsis(deg)": 0.0022780242373254137,
        "Eccentricity": 0.0,
        "Inclination(deg)": 45.0,
        "Latitude(deg)": -44.855364423145915,
        "Longitude(deg)": -93.39121420229648,
        "Mean Anomaly(deg)": -95.87515667050388,
        "RAAN(deg)": 104.99784961170835,
        "Satellite Name": "Constellation 1 478",
        "Satellite Number": 478,
        "Semi-Major Axis(m)": 7083131.272910544,
        "Time(s)": 38
    },
    {
        "Altitude(m)": 717762.5641819288,
        "Argument of Periapsis(deg)": 0.002337972243570819,
        "Eccentricity": 0.0,
        "Inclination(deg)": 45.0,
        "Latitude(deg)": -44.861494657221265,
        "Longitude(deg)": -93.31056026064213,
        "Mean Anomaly(deg)": -95.81445553025394,
        "RAAN(deg)": 104.9977930225428,
        "Satellite Name": "Constellation 1 478",
        "Satellite Number": 478,
        "Semi-Major Axis(m)": 7083131.272910544,
        "Time(s)": 39
    },
    {
        "Altitude(m)": 717765.0555516544,
        "Argument of Periapsis(deg)": 0.0023979202498162246,
        "Eccentricity": 0.0,
        "Inclination(deg)": 45.0,
        "Latitude(deg)": -44.86756198544194,
        "Longitude(deg)": -93.2298884588649,
        "Mean Anomaly(deg)": -95.75375439000402,
        "RAAN(deg)": 104.99773643337723,
        "Satellite Name": "Constellation 1 478",
        "Satellite Number": 478,
        "Semi-Major Axis(m)": 7083131.272910544,
        "Time(s)": 40
    },
    {
        "Altitude(m)": 717767.5209492884,
        "Argument of Periapsis(deg)": 0.00245786825606163,
        "Eccentricity": 0.0,
        "Inclination(deg)": 45.0,
        "Latitude(deg)": -44.87356638159635,
        "Longitude(deg)": -93.14919897374695,
        "Mean Anomaly(deg)": -95.69305324975412,
        "RAAN(deg)": 104.99767984421166,
        "Satellite Name": "Constellation 1 478",
        "Satellite Number": 478,
        "Semi-Major Axis(m)": 7083131.272910544,
        "Time(s)": 41
    },
    {
        "Altitude(m)": 717769.9603657123,
        "Argument of Periapsis(deg)": 0.002517816262307036,
        "Eccentricity": 0.0,
        "Inclination(deg)": 45.0,
        "Latitude(deg)": -44.8795078197311,
        "Longitude(deg)": -93.06849198237545,
        "Mean Anomaly(deg)": -95.6323521095043,
        "RAAN(deg)": 104.99762325504608,
        "Satellite Name": "Constellation 1 478",
        "Satellite Number": 478,
        "Semi-Major Axis(m)": 7083131.272910544,
        "Time(s)": 42
    },
    {
        "Altitude(m)": 717772.3737918995,
        "Argument of Periapsis(deg)": 0.0025777642685524413,
        "Eccentricity": 0.0,
        "Inclination(deg)": 45.0,
        "Latitude(deg)": -44.88538627415167,
        "Longitude(deg)": -92.98776766213966,
        "Mean Anomaly(deg)": -95.57165096925435,
        "RAAN(deg)": 104.99756666588053,
        "Satellite Name": "Constellation 1 478",
        "Satellite Number": 478,
        "Semi-Major Axis(m)": 7083131.272910544,
        "Time(s)": 43
    },
    {
        "Altitude(m)": 717774.7612189152,
        "Argument of Periapsis(deg)": 0.002637712274797847,
        "Eccentricity": 0.0,
        "Inclination(deg)": 45.0,
        "Latitude(deg)": -44.891201719422824,
        "Longitude(deg)": -92.90702635882612,
        "Mean Anomaly(deg)": -95.51094982900443,
        "RAAN(deg)": 104.99751007671495,
        "Satellite Name": "Constellation 1 478",
        "Satellite Number": 478,
        "Semi-Major Axis(m)": 7083131.272910544,
        "Time(s)": 44
    },
    {
        "Altitude(m)": 717777.1226379346,
        "Argument of Periapsis(deg)": 0.0026976602810432526,
        "Eccentricity": 0.0,
        "Inclination(deg)": 45.0,
        "Latitude(deg)": -44.89695413036928,
        "Longitude(deg)": -92.82626791422558,
        "Mean Anomaly(deg)": -95.45024868875453,
        "RAAN(deg)": 104.99745348754938,
        "Satellite Name": "Constellation 1 478",
        "Satellite Number": 478,
        "Semi-Major Axis(m)": 7083131.272910544,
        "Time(s)": 45
    },
    {
        "Altitude(m)": 717779.4580402125,
        "Argument of Periapsis(deg)": 0.0027576082872886585,
        "Eccentricity": 0.0,
        "Inclination(deg)": 45.0,
        "Latitude(deg)": -44.90264348207598,
        "Longitude(deg)": -92.74549267471473,
        "Mean Anomaly(deg)": -95.38954754850465,
        "RAAN(deg)": 104.99739689838381,
        "Satellite Name": "Constellation 1 478",
        "Satellite Number": 478,
        "Semi-Major Axis(m)": 7083131.272910544,
        "Time(s)": 46
    },
    {
        "Altitude(m)": 717781.7674171097,
        "Argument of Periapsis(deg)": 0.0028175562935340644,
        "Eccentricity": 0.0,
        "Inclination(deg)": 45.0,
        "Latitude(deg)": -44.908269749888795,
        "Longitude(deg)": -92.66470081886358,
        "Mean Anomaly(deg)": -95.32884640825469,
        "RAAN(deg)": 104.99734030921826,
        "Satellite Name": "Constellation 1 478",
        "Satellite Number": 478,
        "Semi-Major Axis(m)": 7083131.272910544,
        "Time(s)": 47
    },
    {
        "Altitude(m)": 717784.0507600812,
        "Argument of Periapsis(deg)": 0.00287750429977947,
        "Eccentricity": 0.0,
        "Inclination(deg)": 45.0,
        "Latitude(deg)": -44.91383290941503,
        "Longitude(deg)": -92.58389252553053,
        "Mean Anomaly(deg)": -95.26814526800484,
        "RAAN(deg)": 104.99728372005268,
        "Satellite Name": "Constellation 1 478",
        "Satellite Number": 478,
        "Semi-Major Axis(m)": 7083131.272910544,
        "Time(s)": 48
    },
    {
        "Altitude(m)": 717786.3080606773,
        "Argument of Periapsis(deg)": 0.002937452306024875,
        "Eccentricity": 0.0,
        "Inclination(deg)": 45.0,
        "Latitude(deg)": -44.919332936523745,
        "Longitude(deg)": -92.50306797385873,
        "Mean Anomaly(deg)": -95.207444127755,
        "RAAN(deg)": 104.99722713088711,
        "Satellite Name": "Constellation 1 478",
        "Satellite Number": 478,
        "Semi-Major Axis(m)": 7083131.272910544,
        "Time(s)": 49
    },
    {
        "Altitude(m)": 717788.5393105403,
        "Argument of Periapsis(deg)": 0.0029974003122702807,
        "Eccentricity": 0.0,
        "Inclination(deg)": 45.0,
        "Latitude(deg)": -44.924769807346536,
        "Longitude(deg)": -92.4222273432736,
        "Mean Anomaly(deg)": -95.14674298750506,
        "RAAN(deg)": 104.99717054172153,
        "Satellite Name": "Constellation 1 478",
        "Satellite Number": 478,
        "Semi-Major Axis(m)": 7083131.272910544,
        "Time(s)": 50
    },
    {
        "Altitude(m)": 717790.744501416,
        "Argument of Periapsis(deg)": 0.0030573483185156866,
        "Eccentricity": 0.0,
        "Inclination(deg)": 45.0,
        "Latitude(deg)": -44.9301434982777,
        "Longitude(deg)": -92.34137081347998,
        "Mean Anomaly(deg)": -95.0860418472551,
        "RAAN(deg)": 104.99711395255596,
        "Satellite Name": "Constellation 1 478",
        "Satellite Number": 478,
        "Semi-Major Axis(m)": 7083131.272910544,
        "Time(s)": 51
    },
    {
        "Altitude(m)": 717792.923625144,
        "Argument of Periapsis(deg)": 0.003117296324761092,
        "Eccentricity": 0.0,
        "Inclination(deg)": 45.0,
        "Latitude(deg)": -44.93545398597492,
        "Longitude(deg)": -92.2604987325564,
        "Mean Anomaly(deg)": -95.0253407070052,
        "RAAN(deg)": 104.99705736339041,
        "Satellite Name": "Constellation 1 478",
        "Satellite Number": 478,
        "Semi-Major Axis(m)": 7083131.272910544,
        "Time(s)": 52
    },
    {
        "Altitude(m)": 717795.0766736505,
        "Argument of Periapsis(deg)": 0.0031772443310064975,
        "Eccentricity": 0.0,
        "Inclination(deg)": 45.0,
        "Latitude(deg)": -44.94070124735985,
        "Longitude(deg)": -92.17961094456288,
        "Mean Anomaly(deg)": -94.96463956675534,
        "RAAN(deg)": 104.99700077422483,
        "Satellite Name": "Constellation 1 478",
        "Satellite Number": 478,
        "Semi-Major Axis(m)": 7083131.272910544,
        "Time(s)": 53
    },
    {
        "Altitude(m)": 717797.2036389778,
        "Argument of Periapsis(deg)": 0.0032371923372519038,
        "Eccentricity": 0.0,
        "Inclination(deg)": 45.0,
        "Latitude(deg)": -44.94588525961823,
        "Longitude(deg)": -92.09870779812175,
        "Mean Anomaly(deg)": -94.90393842650548,
        "RAAN(deg)": 104.99694418505926,
        "Satellite Name": "Constellation 1 478",
        "Satellite Number": 478,
        "Semi-Major Axis(m)": 7083131.272910544,
        "Time(s)": 54
    },
    {
        "Altitude(m)": 717799.3045132464,
        "Argument of Periapsis(deg)": 0.0032971403434973088,
        "Eccentricity": 0.0,
        "Inclination(deg)": 45.0,
        "Latitude(deg)": -44.951006000200714,
        "Longitude(deg)": -92.01778947402545,
        "Mean Anomaly(deg)": -94.84323728625552,
        "RAAN(deg)": 104.99688759589368,
        "Satellite Name": "Constellation 1 478",
        "Satellite Number": 478,
        "Semi-Major Axis(m)": 7083131.272910544,
        "Time(s)": 55
    },
    {
        "Altitude(m)": 717801.3792886792,
        "Argument of Periapsis(deg)": 0.0033570883497427146,
        "Eccentricity": 0.0,
        "Inclination(deg)": 45.0,
        "Latitude(deg)": -44.95606344682312,
        "Longitude(deg)": -91.93685615333148,
        "Mean Anomaly(deg)": -94.78253614600567,
        "RAAN(deg)": 104.99683100672812,
        "Satellite Name": "Constellation 1 478",
        "Satellite Number": 478,
        "Semi-Major Axis(m)": 7083131.272910544,
        "Time(s)": 56
    }
]